[{"OBJECT_NAME":"TIANMU-1 15","OBJECT_ID":"2024-004A","EPOCH":"2026-03-09T23:35:22.816608","MEAN_MOTION":15.25840188,"ECCENTRICITY":0.00066612,"INCLINATION":97.4675,"RA_OF_ASC_NODE":255.2203,"ARG_OF_PERICENTER":349.0037,"MEAN_ANOMALY":11.1054,"EPHEMERIS_TYPE":0,"CLASSIFICATION_TYPE":"U","NORAD_CAT_ID":58700,"ELEMENT_SET_NO":999,"REV_AT_EPOCH":12064,"BSTAR":0.0003159702,"MEAN_MOTION_DOT":8.018e-5,"MEAN_MOTION_DDOT":0},{"OBJECT_NAME":"STARLINK-32799","OBJECT_ID":"2025-019U","EPOCH":"2026-03-09T10:23:40.764480","MEAN_MOTION":15.27563236,"ECCENTRICITY":9.76e-5,"INCLINATION":42.9994,"RA_OF_ASC_NODE":90.2596,"ARG_OF_PERICENTER":259.5578,"MEAN_ANOMALY":100.5163,"EPHEMERIS_TYPE":0,"CLASSIFICATION_TYPE":"U","NORAD_CAT_ID":62847,"ELEMENT_SET_NO":999,"REV_AT_EPOCH":6221,"BSTAR":0.00079186769,"MEAN_MOTION_DOT":0.00021581,"MEAN_MOTION_DDOT":0}]
